KUIPER-00112            
1 65150U 25171U   25300.00002315 -.00449072  00000+0 -14889-1 0  9992
2 65150  51.8785  35.7183 0007560  72.8070  71.3087 15.32579929  4699
KUIPER-00114            
1 65151U 25171V   25299.67947844  .00006440  00000+0  87077-3 0  9995
2 65151  51.9004  48.2034 0005419  39.9800 320.1561 14.80040286 12798
KUIPER-00115            
1 65152U 25171W   25300.00002315 -.01767255  00000+0 -15989+0 0  9991
2 65152  51.8953  40.1201 0010692  44.4642  95.6351 14.98590605  5676
KUIPER-00116            
1 65153U 25171X   25300.00002315 -.00049118  00000+0 -57826-2 0  9991
2 65153  51.8992  44.3385 0005103  23.9030  49.5310 14.84523999  5730
KUIPER-00118            
1 65154U 25171Y   25299.71317042 -.00005637  00000+0 -71007-3 0  9999
2 65154  51.9018  48.0257 0001695  61.8625 298.2508 14.79987806 12806
KUIPER-00119            
1 65155U 25171Z   25300.00002315 -.00946068  00000+0 -56844-1 0  9991
2 65155  51.8856  37.5701 0007495  13.8686 237.9351 15.13247876  4229
KUIPER-00120            
1 65762U 25217A   25299.91670139  .00058350  00000+0  22234-2 0  9991
2 65762  51.8690 291.4902 0009842 216.8583  89.9169 15.26108265  5823
KUIPER-00132            
1 65763U 25217B   25299.94422859  .00021008  00000+0  60093-3 0  9995
2 65763  51.8639 290.8496 0005605 207.6319 152.4370 15.35907085  4844
